{
  "norad_id": 48328,
  "name": "STARLINK-2504",
  "history": [
    {
      "epoch": "2026-04-30T12:45:44.836416Z",
      "apogee_km": 471.5924786702417,
      "perigee_km": 469.7734320900927,
      "latitude_deg": -4.907341457148208e-05,
      "longitude_deg": 170.06597375892542,
      "height_km": 471.4376392207081,
      "semi_major_axis_km": 6848.819955380167,
      "eccentricity": 0.0001328,
      "inclination_deg": 53.1605,
      "raan_deg": 219.98,
      "arg_perigee_deg": 80.8909,
      "mean_anomaly_deg": 279.2242,
      "mean_motion_rev_day": 15.31719135
    },
    {
      "epoch": "2026-05-02T10:10:35.740128Z",
      "apogee_km": 471.64791938929284,
      "perigee_km": 469.7097045145101,
      "latitude_deg": 1.3134132125574202e-05,
      "longitude_deg": -161.82087365711794,
      "height_km": 471.18903555629964,
      "semi_major_axis_km": 6848.815811951901,
      "eccentricity": 0.0001415,
      "inclination_deg": 53.1604,
      "raan_deg": 211.1703,
      "arg_perigee_deg": 66.3693,
      "mean_anomaly_deg": 293.7457,
      "mean_motion_rev_day": 15.31720525
    },
    {
      "epoch": "2026-05-03T12:47:55.532832Z",
      "apogee_km": 471.549625171313,
      "perigee_km": 469.9360290840423,
      "latitude_deg": -5.040093009190432e-06,
      "longitude_deg": 152.58750686216297,
      "height_km": 472.01583230167597,
      "semi_major_axis_km": 6848.879827127677,
      "eccentricity": 0.0001178,
      "inclination_deg": 53.1594,
      "raan_deg": 206.0045,
      "arg_perigee_deg": 117.6259,
      "mean_anomaly_deg": 242.4862,
      "mean_motion_rev_day": 15.3169905
    },
    {
      "epoch": "2026-05-04T12:17:20.227488Z",
      "apogee_km": 471.5050901036848,
      "perigee_km": 469.9308123046003,
      "latitude_deg": 1.805981972946311e-06,
      "longitude_deg": 154.71520638484674,
      "height_km": 471.6441430953995,
      "semi_major_axis_km": 6848.854951204142,
      "eccentricity": 0.00011493,
      "inclination_deg": 53.158,
      "raan_deg": 201.4498,
      "arg_perigee_deg": 92.0079,
      "mean_anomaly_deg": 268.1054,
      "mean_motion_rev_day": 15.31707395
    },
    {
      "epoch": "2026-05-05T11:46:45.183936Z",
      "apogee_km": 471.46969255762997,
      "perigee_km": 470.0054031792952,
      "latitude_deg": -6.410237391608878e-05,
      "longitude_deg": 156.84065750699023,
      "height_km": 471.65609064357903,
      "semi_major_axis_km": 6848.874547868462,
      "eccentricity": 0.0001069,
      "inclination_deg": 53.1572,
      "raan_deg": 196.894,
      "arg_perigee_deg": 91.5576,
      "mean_anomaly_deg": 268.5547,
      "mean_motion_rev_day": 15.31700821
    },
    {
      "epoch": "2026-05-06T11:16:11.055360Z",
      "apogee_km": 471.6865865769123,
      "perigee_km": 469.9154512052264,
      "latitude_deg": 2.573360630349774e-05,
      "longitude_deg": 158.96400172010547,
      "height_km": 471.9467753113328,
      "semi_major_axis_km": 6848.938018891069,
      "eccentricity": 0.0001293,
      "inclination_deg": 53.1582,
      "raan_deg": 192.3398,
      "arg_perigee_deg": 106.2136,
      "mean_anomaly_deg": 253.9008,
      "mean_motion_rev_day": 15.31679529
    },
    {
      "epoch": "2026-05-07T10:45:35.694720Z",
      "apogee_km": 471.48452116433054,
      "perigee_km": 470.014750092324,
      "latitude_deg": -1.5747215215078597e-05,
      "longitude_deg": 161.0876959261777,
      "height_km": 471.68401849607153,
      "semi_major_axis_km": 6848.886635628327,
      "eccentricity": 0.0001073,
      "inclination_deg": 53.16,
      "raan_deg": 187.7809,
      "arg_perigee_deg": 92.7652,
      "mean_anomaly_deg": 267.3472,
      "mean_motion_rev_day": 15.31696766
    },
    {
      "epoch": "2026-05-08T10:15:00.021312Z",
      "apogee_km": 471.4394394213705,
      "perigee_km": 470.0272023612015,
      "latitude_deg": -8.692199495558015e-06,
      "longitude_deg": 163.21423352509512,
      "height_km": 471.6925802740209,
      "semi_major_axis_km": 6848.870320891286,
      "eccentricity": 0.0001031,
      "inclination_deg": 53.1603,
      "raan_deg": 183.2235,
      "arg_perigee_deg": 94.8937,
      "mean_anomaly_deg": 265.2182,
      "mean_motion_rev_day": 15.31702239
    },
    {
      "epoch": "2026-05-09T09:44:24.276192Z",
      "apogee_km": 471.4204650234087,
      "perigee_km": 470.0000141059227,
      "latitude_deg": 1.0397748951714196e-07,
      "longitude_deg": 165.34107273644602,
      "height_km": 471.65238216994004,
      "semi_major_axis_km": 6848.847239564666,
      "eccentricity": 0.0001037,
      "inclination_deg": 53.1598,
      "raan_deg": 178.6661,
      "arg_perigee_deg": 93.4858,
      "mean_anomaly_deg": 266.6262,
      "mean_motion_rev_day": 15.31709982
    },
    {
      "epoch": "2026-05-10T09:13:47.379360Z",
      "apogee_km": 471.4135815734744,
      "perigee_km": 469.9369776459898,
      "latitude_deg": 3.490056392963271e-05,
      "longitude_deg": 167.47304411305865,
      "height_km": 471.6302975406246,
      "semi_major_axis_km": 6848.812279609731,
      "eccentricity": 0.0001078,
      "inclination_deg": 53.1597,
      "raan_deg": 174.109,
      "arg_perigee_deg": 94.3596,
      "mean_anomaly_deg": 265.7529,
      "mean_motion_rev_day": 15.3172171
    },
    {
      "epoch": "2026-05-11T08:43:12.352224Z",
      "apogee_km": 471.2668573957917,
      "perigee_km": 470.09105267263203,
      "latitude_deg": -1.6373404277986695e-05,
      "longitude_deg": 169.59954052673848,
      "height_km": 471.25281433045046,
      "semi_major_axis_km": 6848.815955034212,
      "eccentricity": 8.584e-05,
      "inclination_deg": 53.1573,
      "raan_deg": 169.5543,
      "arg_perigee_deg": 56.4086,
      "mean_anomaly_deg": 303.6997,
      "mean_motion_rev_day": 15.31720477
    },
    {
      "epoch": "2026-05-12T19:10:20.286624Z",
      "apogee_km": 471.4237816760933,
      "perigee_km": 470.0622243314956,
      "latitude_deg": 1.2293899430965991e-05,
      "longitude_deg": 4.717000481031626,
      "height_km": 471.7500473105937,
      "semi_major_axis_km": 6848.880003003794,
      "eccentricity": 9.94e-05,
      "inclination_deg": 53.159,
      "raan_deg": 162.8697,
      "arg_perigee_deg": 99.1371,
      "mean_anomaly_deg": 260.9743,
      "mean_motion_rev_day": 15.31698991
    },
    {
      "epoch": "2026-05-13T10:49:57.003744Z",
      "apogee_km": 471.4966664253825,
      "perigee_km": 470.0159356936929,
      "latitude_deg": -1.7664693996800127e-05,
      "longitude_deg": 126.13314903133609,
      "height_km": 471.7509718892824,
      "semi_major_axis_km": 6848.893301059537,
      "eccentricity": 0.0001081,
      "inclination_deg": 53.1593,
      "raan_deg": 159.832,
      "arg_perigee_deg": 97.4361,
      "mean_anomaly_deg": 262.6763,
      "mean_motion_rev_day": 15.3169453
    }
  ]
}